[{"OBJECT_NAME":"ONEWEB-0044","OBJECT_ID":"2020-008V","EPOCH":"2025-08-24T13:59:50.917344","MEAN_MOTION":13.10377345,"ECCENTRICITY":0.00019876,"INCLINATION":87.8764,"RA_OF_ASC_NODE":95.4178,"ARG_OF_PERICENTER":83.3226,"MEAN_ANOMALY":276.8128,"EPHEMERIS_TYPE":0,"CLASSIFICATION_TYPE":"U","NORAD_CAT_ID":45150,"ELEMENT_SET_NO":999,"REV_AT_EPOCH":26963,"BSTAR":0.00062961998,"MEAN_MOTION_DOT":2.32e-6,"MEAN_MOTION_DDOT":0},{"OBJECT_NAME":"ONEWEB-0045","OBJECT_ID":"2020-008W","EPOCH":"2025-08-24T14:21:15.158304","MEAN_MOTION":13.11417335,"ECCENTRICITY":0.00017691,"INCLINATION":87.8788,"RA_OF_ASC_NODE":80.1342,"ARG_OF_PERICENTER":81.1356,"MEAN_ANOMALY":278.9972,"EPHEMERIS_TYPE":0,"CLASSIFICATION_TYPE":"U","NORAD_CAT_ID":45151,"ELEMENT_SET_NO":999,"REV_AT_EPOCH":27153,"BSTAR":-0.0014569126,"MEAN_MOTION_DOT":-5.04e-6,"MEAN_MOTION_DDOT":0},{"OBJECT_NAME":"ONEWEB-0047","OBJECT_ID":"2020-008X","EPOCH":"2025-08-24T13:50:17.903040","MEAN_MOTION":13.10372324,"ECCENTRICITY":0.00018124,"INCLINATION":87.8766,"RA_OF_ASC_NODE":95.4289,"ARG_OF_PERICENTER":80.0722,"MEAN_ANOMALY":280.061,"EPHEMERIS_TYPE":0,"CLASSIFICATION_TYPE":"U","NORAD_CAT_ID":45152,"ELEMENT_SET_NO":999,"REV_AT_EPOCH":26935,"BSTAR":-0.00046630974,"MEAN_MOTION_DOT":-1.5e-6,"MEAN_MOTION_DDOT":0},{"OBJECT_NAME":"ONEWEB-0048","OBJECT_ID":"2020-008Y","EPOCH":"2025-08-24T13:43:06.752352","MEAN_MOTION":13.10375908,"ECCENTRICITY":0.00017827,"INCLINATION":87.8767,"RA_OF_ASC_NODE":95.4547,"ARG_OF_PERICENTER":81.6358,"MEAN_ANOMALY":278.4971,"EPHEMERIS_TYPE":0,"CLASSIFICATION_TYPE":"U","NORAD_CAT_ID":45153,"ELEMENT_SET_NO":999,"REV_AT_EPOCH":26896,"BSTAR":-0.0011039246,"MEAN_MOTION_DOT":-3.73e-6,"MEAN_MOTION_DDOT":0},{"OBJECT_NAME":"ONEWEB-0049","OBJECT_ID":"2020-008Z","EPOCH":"2025-08-24T13:46:42.066336","MEAN_MOTION":13.10375711,"ECCENTRICITY":0.0001907,"INCLINATION":87.8763,"RA_OF_ASC_NODE":95.4465,"ARG_OF_PERICENTER":96.2403,"MEAN_ANOMALY":263.8942,"EPHEMERIS_TYPE":0,"CLASSIFICATION_TYPE":"U","NORAD_CAT_ID":45154,"ELEMENT_SET_NO":999,"REV_AT_EPOCH":26918,"BSTAR":-0.0007958012,"MEAN_MOTION_DOT":-2.65e-6,"MEAN_MOTION_DDOT":0},{"OBJECT_NAME":"ONEWEB-0051","OBJECT_ID":"2020-008AA","EPOCH":"2025-08-24T14:18:48.902976","MEAN_MOTION":13.11417244,"ECCENTRICITY":0.00016504,"INCLINATION":87.8775,"RA_OF_ASC_NODE":80.1765,"ARG_OF_PERICENTER":85.2904,"MEAN_ANOMALY":274.8412,"EPHEMERIS_TYPE":0,"CLASSIFICATION_TYPE":"U","NORAD_CAT_ID":45155,"ELEMENT_SET_NO":999,"REV_AT_EPOCH":27221,"BSTAR":-0.0013491765,"MEAN_MOTION_DOT":-4.65e-6,"MEAN_MOTION_DDOT":0},{"OBJECT_NAME":"ONEWEB-0052","OBJECT_ID":"2020-008AB","EPOCH":"2025-08-24T13:39:30.697056","MEAN_MOTION":13.10374478,"ECCENTRICITY":0.00020986,"INCLINATION":87.8773,"RA_OF_ASC_NODE":95.3964,"ARG_OF_PERICENTER":96.3899,"MEAN_ANOMALY":263.7467,"EPHEMERIS_TYPE":0,"CLASSIFICATION_TYPE":"U","NORAD_CAT_ID":45156,"ELEMENT_SET_NO":999,"REV_AT_EPOCH":26909,"BSTAR":-0.0016036638,"MEAN_MOTION_DOT":-5.47e-6,"MEAN_MOTION_DDOT":0},{"OBJECT_NAME":"ONEWEB-0053","OBJECT_ID":"2020-008AC","EPOCH":"2025-08-24T13:14:23.006688","MEAN_MOTION":13.10368982,"ECCENTRICITY":0.00019537,"INCLINATION":87.8761,"RA_OF_ASC_NODE":95.4552,"ARG_OF_PERICENTER":74.8527,"MEAN_ANOMALY":285.2817,"EPHEMERIS_TYPE":0,"CLASSIFICATION_TYPE":"U","NORAD_CAT_ID":45157,"ELEMENT_SET_NO":999,"REV_AT_EPOCH":26906,"BSTAR":-0.0013052007,"MEAN_MOTION_DOT":-4.43e-6,"MEAN_MOTION_DDOT":0},{"OBJECT_NAME":"ONEWEB-0054","OBJECT_ID":"2020-008AD","EPOCH":"2025-08-24T14:04:37.866432","MEAN_MOTION":13.10376495,"ECCENTRICITY":0.0001683,"INCLINATION":87.8763,"RA_OF_ASC_NODE":95.422,"ARG_OF_PERICENTER":83.4931,"MEAN_ANOMALY":276.6388,"EPHEMERIS_TYPE":0,"CLASSIFICATION_TYPE":"U","NORAD_CAT_ID":45158,"ELEMENT_SET_NO":999,"REV_AT_EPOCH":26918,"BSTAR":0.00091818995,"MEAN_MOTION_DOT":3.33e-6,"MEAN_MOTION_DDOT":0},{"OBJECT_NAME":"ONEWEB-0056","OBJECT_ID":"2020-008AE","EPOCH":"2025-08-24T13:37:07.690368","MEAN_MOTION":13.10375099,"ECCENTRICITY":0.00017619,"INCLINATION":87.8763,"RA_OF_ASC_NODE":95.4229,"ARG_OF_PERICENTER":83.3901,"MEAN_ANOMALY":276.7427,"EPHEMERIS_TYPE":0,"CLASSIFICATION_TYPE":"U","NORAD_CAT_ID":45159,"ELEMENT_SET_NO":999,"REV_AT_EPOCH":26933,"BSTAR":-0.0014017925,"MEAN_MOTION_DOT":-4.77e-6,"MEAN_MOTION_DDOT":0},{"OBJECT_NAME":"ONEWEB-0057","OBJECT_ID":"2020-008AF","EPOCH":"2025-08-24T13:47:52.977408","MEAN_MOTION":13.10376625,"ECCENTRICITY":0.00018753,"INCLINATION":87.8765,"RA_OF_ASC_NODE":95.4354,"ARG_OF_PERICENTER":84.0104,"MEAN_ANOMALY":276.1237,"EPHEMERIS_TYPE":0,"CLASSIFICATION_TYPE":"U","NORAD_CAT_ID":45160,"ELEMENT_SET_NO":999,"REV_AT_EPOCH":26950,"BSTAR":-0.00064725277,"MEAN_MOTION_DOT":-2.13e-6,"MEAN_MOTION_DDOT":0},{"OBJECT_NAME":"ONEWEB-0058","OBJECT_ID":"2020-008AG","EPOCH":"2025-08-24T13:28:57.020448","MEAN_MOTION":13.10374195,"ECCENTRICITY":0.00016813,"INCLINATION":87.8759,"RA_OF_ASC_NODE":95.448,"ARG_OF_PERICENTER":76.3196,"MEAN_ANOMALY":283.8118,"EPHEMERIS_TYPE":0,"CLASSIFICATION_TYPE":"U","NORAD_CAT_ID":45161,"ELEMENT_SET_NO":999,"REV_AT_EPOCH":26957,"BSTAR":-0.0017804362,"MEAN_MOTION_DOT":-6.09e-6,"MEAN_MOTION_DDOT":0},{"OBJECT_NAME":"ONEWEB-0059","OBJECT_ID":"2020-008AH","EPOCH":"2025-08-24T13:23:58.492896","MEAN_MOTION":13.10371328,"ECCENTRICITY":0.00016499,"INCLINATION":87.8762,"RA_OF_ASC_NODE":95.4485,"ARG_OF_PERICENTER":78.0174,"MEAN_ANOMALY":282.1138,"EPHEMERIS_TYPE":0,"CLASSIFICATION_TYPE":"U","NORAD_CAT_ID":45162,"ELEMENT_SET_NO":999,"REV_AT_EPOCH":26947,"BSTAR":-0.0017534031,"MEAN_MOTION_DOT":-5.99e-6,"MEAN_MOTION_DDOT":0},{"OBJECT_NAME":"ONEWEB-0062","OBJECT_ID":"2020-008AJ","EPOCH":"2025-08-24T14:01:03.007776","MEAN_MOTION":13.10375781,"ECCENTRICITY":0.00013647,"INCLINATION":87.8762,"RA_OF_ASC_NODE":95.4219,"ARG_OF_PERICENTER":81.226,"MEAN_ANOMALY":278.9022,"EPHEMERIS_TYPE":0,"CLASSIFICATION_TYPE":"U","NORAD_CAT_ID":45163,"ELEMENT_SET_NO":999,"REV_AT_EPOCH":26934,"BSTAR":0.0007591763,"MEAN_MOTION_DOT":2.78e-6,"MEAN_MOTION_DDOT":0},{"OBJECT_NAME":"ONEWEB-0065","OBJECT_ID":"2020-008AK","EPOCH":"2025-08-24T13:32:20.055264","MEAN_MOTION":13.103733,"ECCENTRICITY":0.00019712,"INCLINATION":87.876,"RA_OF_ASC_NODE":95.4515,"ARG_OF_PERICENTER":90.9168,"MEAN_ANOMALY":269.2185,"EPHEMERIS_TYPE":0,"CLASSIFICATION_TYPE":"U","NORAD_CAT_ID":45164,"ELEMENT_SET_NO":999,"REV_AT_EPOCH":26903,"BSTAR":-0.0016327391,"MEAN_MOTION_DOT":-5.57e-6,"MEAN_MOTION_DDOT":0},{"OBJECT_NAME":"ONEWEB-0066","OBJECT_ID":"2020-020A","EPOCH":"2025-08-24T13:56:50.125344","MEAN_MOTION":13.11413543,"ECCENTRICITY":0.00019368,"INCLINATION":87.878,"RA_OF_ASC_NODE":80.1652,"ARG_OF_PERICENTER":80.5306,"MEAN_ANOMALY":279.6041,"EPHEMERIS_TYPE":0,"CLASSIFICATION_TYPE":"U","NORAD_CAT_ID":45424,"ELEMENT_SET_NO":999,"REV_AT_EPOCH":26380,"BSTAR":-0.00054563498,"MEAN_MOTION_DOT":-1.81e-6,"MEAN_MOTION_DDOT":0},{"OBJECT_NAME":"ONEWEB-0067","OBJECT_ID":"2020-020B","EPOCH":"2025-08-24T13:00:51.194880","MEAN_MOTION":13.11420896,"ECCENTRICITY":0.00019227,"INCLINATION":87.8771,"RA_OF_ASC_NODE":80.0816,"ARG_OF_PERICENTER":82.6452,"MEAN_ANOMALY":277.4894,"EPHEMERIS_TYPE":0,"CLASSIFICATION_TYPE":"U","NORAD_CAT_ID":45425,"ELEMENT_SET_NO":999,"REV_AT_EPOCH":26385,"BSTAR":0.00061533837,"MEAN_MOTION_DOT":2.31e-6,"MEAN_MOTION_DDOT":0},{"OBJECT_NAME":"ONEWEB-0080","OBJECT_ID":"2020-020C","EPOCH":"2025-08-24T13:14:08.320416","MEAN_MOTION":13.11418196,"ECCENTRICITY":0.00016213,"INCLINATION":87.8782,"RA_OF_ASC_NODE":80.1723,"ARG_OF_PERICENTER":72.8842,"MEAN_ANOMALY":287.2464,"EPHEMERIS_TYPE":0,"CLASSIFICATION_TYPE":"U","NORAD_CAT_ID":45426,"ELEMENT_SET_NO":999,"REV_AT_EPOCH":26382,"BSTAR":0.0015490191,"MEAN_MOTION_DOT":5.62e-6,"MEAN_MOTION_DDOT":0},{"OBJECT_NAME":"ONEWEB-0090","OBJECT_ID":"2020-020D","EPOCH":"2025-08-24T13:42:12.720384","MEAN_MOTION":13.11414751,"ECCENTRICITY":0.00016662,"INCLINATION":87.8778,"RA_OF_ASC_NODE":80.1694,"ARG_OF_PERICENTER":85.0126,"MEAN_ANOMALY":275.1192,"EPHEMERIS_TYPE":0,"CLASSIFICATION_TYPE":"U","NORAD_CAT_ID":45427,"ELEMENT_SET_NO":999,"REV_AT_EPOCH":26379,"BSTAR":0.00048427642,"MEAN_MOTION_DOT":1.84e-6,"MEAN_MOTION_DDOT":0},{"OBJECT_NAME":"ONEWEB-0061","OBJECT_ID":"2020-020E","EPOCH":"2025-08-24T14:28:21.455040","MEAN_MOTION":13.11419673,"ECCENTRICITY":0.00017306,"INCLINATION":87.8782,"RA_OF_ASC_NODE":80.1447,"ARG_OF_PERICENTER":83.1481,"MEAN_ANOMALY":276.9844,"EPHEMERIS_TYPE":0,"CLASSIFICATION_TYPE":"U","NORAD_CAT_ID":45428,"ELEMENT_SET_NO":999,"REV_AT_EPOCH":26375,"BSTAR":-0.0010983441,"MEAN_MOTION_DOT":-3.77e-6,"MEAN_MOTION_DDOT":0},{"OBJECT_NAME":"ONEWEB-0081","OBJECT_ID":"2020-020F","EPOCH":"2025-08-24T14:01:43.522464","MEAN_MOTION":13.11414563,"ECCENTRICITY":0.00019117,"INCLINATION":87.8776,"RA_OF_ASC_NODE":80.1672,"ARG_OF_PERICENTER":81.4446,"MEAN_ANOMALY":278.6899,"EPHEMERIS_TYPE":0,"CLASSIFICATION_TYPE":"U","NORAD_CAT_ID":45429,"ELEMENT_SET_NO":999,"REV_AT_EPOCH":26386,"BSTAR":-0.0011675175,"MEAN_MOTION_DOT":-4.01e-6,"MEAN_MOTION_DDOT":0},{"OBJECT_NAME":"ONEWEB-0069","OBJECT_ID":"2020-020G","EPOCH":"2025-08-24T13:45:52.119360","MEAN_MOTION":13.11414694,"ECCENTRICITY":0.00018398,"INCLINATION":87.8782,"RA_OF_ASC_NODE":80.1631,"ARG_OF_PERICENTER":85.8068,"MEAN_ANOMALY":274.3271,"EPHEMERIS_TYPE":0,"CLASSIFICATION_TYPE":"U","NORAD_CAT_ID":45430,"ELEMENT_SET_NO":999,"REV_AT_EPOCH":26379,"BSTAR":0.0003633827,"MEAN_MOTION_DOT":1.41e-6,"MEAN_MOTION_DDOT":0},{"OBJECT_NAME":"ONEWEB-0031","OBJECT_ID":"2020-020H","EPOCH":"2025-08-24T14:55:27.052032","MEAN_MOTION":13.11417995,"ECCENTRICITY":0.00015075,"INCLINATION":87.8781,"RA_OF_ASC_NODE":80.1832,"ARG_OF_PERICENTER":83.6553,"MEAN_ANOMALY":276.4746,"EPHEMERIS_TYPE":0,"CLASSIFICATION_TYPE":"U","NORAD_CAT_ID":45431,"ELEMENT_SET_NO":999,"REV_AT_EPOCH":26378,"BSTAR":0.00094195366,"MEAN_MOTION_DOT":3.47e-6,"MEAN_MOTION_DDOT":0}]
